[{"OBJECT_NAME":"STARLINK-1627","OBJECT_ID":"2020-057BD","EPOCH":"2026-03-10T00:00:02.999808","MEAN_MOTION":15.7182535,"ECCENTRICITY":0.00032384,"INCLINATION":53.043,"RA_OF_ASC_NODE":223.2369,"ARG_OF_PERICENTER":42.9244,"MEAN_ANOMALY":228.4026,"EPHEMERIS_TYPE":0,"CLASSIFICATION_TYPE":"U","NORAD_CAT_ID":46168,"ELEMENT_SET_NO":999,"REV_AT_EPOCH":596,"BSTAR":0.00036555083,"MEAN_MOTION_DOT":0.00048075,"MEAN_MOTION_DDOT":0},{"OBJECT_NAME":"STARLINK-11487 [DTC]","OBJECT_ID":"2024-237M","EPOCH":"2026-03-09T23:42:00.327456","MEAN_MOTION":15.70882532,"ECCENTRICITY":0.00015723,"INCLINATION":43.0003,"RA_OF_ASC_NODE":55.3015,"ARG_OF_PERICENTER":243.0309,"MEAN_ANOMALY":117.0398,"EPHEMERIS_TYPE":0,"CLASSIFICATION_TYPE":"U","NORAD_CAT_ID":62278,"ELEMENT_SET_NO":999,"REV_AT_EPOCH":7309,"BSTAR":0.00099580366,"MEAN_MOTION_DOT":0.00129568,"MEAN_MOTION_DDOT":0}]
